{
    "links": {
        "self": "http://www.neowsapp.com/rest/v1/neo/3879545?api_key=iIulBulltgU6a56xZRHN4H3l9WmuAYTsLGpBGhQ2"
    },
    "id": "3879545",
    "neo_reference_id": "3879545",
    "name": "(2019 UK5)",
    "designation": "2019 UK5",
    "nasa_jpl_url": "http://ssd.jpl.nasa.gov/sbdb.cgi?sstr=3879545",
    "absolute_magnitude_h": 26.2,
    "estimated_diameter": {
        "kilometers": {
            "estimated_diameter_min": 0.0152951935,
            "estimated_diameter_max": 0.0342010925
        },
        "meters": {
            "estimated_diameter_min": 15.2951935344,
            "estimated_diameter_max": 34.201092472
        },
        "miles": {
            "estimated_diameter_min": 0.0095039897,
            "estimated_diameter_max": 0.021251567
        },
        "feet": {
            "estimated_diameter_min": 50.1810827555,
            "estimated_diameter_max": 112.2083122258
        }
    },
    "is_potentially_hazardous_asteroid": false,
    "close_approach_data": [
        {
            "close_approach_date": "2016-10-31",
            "close_approach_date_full": "2016-Oct-31 02:34",
            "epoch_date_close_approach": 1477881240000,
            "relative_velocity": {
                "kilometers_per_second": "17.1370478468",
                "kilometers_per_hour": "61693.3722484354",
                "miles_per_hour": "38333.8623284792"
            },
            "miss_distance": {
                "astronomical": "0.2367564557",
                "lunar": "92.0982612673",
                "kilometers": "35418261.481469359",
                "miles": "22007887.1652967942"
            },
            "orbiting_body": "Earth"
        },
        {
            "close_approach_date": "2019-10-21",
            "close_approach_date_full": "2019-Oct-21 02:46",
            "epoch_date_close_approach": 1571625960000,
            "relative_velocity": {
                "kilometers_per_second": "11.4760508474",
                "kilometers_per_hour": "41313.7830506202",
                "miles_per_hour": "25670.7781405368"
            },
            "miss_distance": {
                "astronomical": "0.0403374145",
                "lunar": "15.6912542405",
                "kilometers": "6034391.290507115",
                "miles": "3749596.876803587"
            },
            "orbiting_body": "Earth"
        },
        {
            "close_approach_date": "2154-11-01",
            "close_approach_date_full": "2154-Nov-01 18:32",
            "epoch_date_close_approach": 5832844320000,
            "relative_velocity": {
                "kilometers_per_second": "16.707987652",
                "kilometers_per_hour": "60148.7555471525",
                "miles_per_hour": "37374.0975787293"
            },
            "miss_distance": {
                "astronomical": "0.2216640781",
                "lunar": "86.2273263809",
                "kilometers": "33160473.939273647",
                "miles": "20604963.0410324486"
            },
            "orbiting_body": "Earth"
        },
        {
            "close_approach_date": "2157-04-17",
            "close_approach_date_full": "2157-Apr-17 17:10",
            "epoch_date_close_approach": 5910426600000,
            "relative_velocity": {
                "kilometers_per_second": "8.9885125721",
                "kilometers_per_hour": "32358.6452594955",
                "miles_per_hour": "20106.4037724904"
            },
            "miss_distance": {
                "astronomical": "0.493102486",
                "lunar": "191.816867054",
                "kilometers": "73767081.59730482",
                "miles": "45836739.026733716"
            },
            "orbiting_body": "Earth"
        },
        {
            "close_approach_date": "2157-10-21",
            "close_approach_date_full": "2157-Oct-21 14:34",
            "epoch_date_close_approach": 5926574040000,
            "relative_velocity": {
                "kilometers_per_second": "11.1677797196",
                "kilometers_per_hour": "40204.0069904984",
                "miles_per_hour": "24981.206454735"
            },
            "miss_distance": {
                "astronomical": "0.031314219",
                "lunar": "12.181231191",
                "kilometers": "4684540.46311353",
                "miles": "2910838.466405514"
            },
            "orbiting_body": "Earth"
        }
    ],
    "orbital_data": {
        "orbit_id": "5",
        "orbit_determination_date": "2020-01-19 05:16:41",
        "first_observation_date": "2019-10-23",
        "last_observation_date": "2019-11-02",
        "data_arc_in_days": 10,
        "observations_used": 31,
        "orbit_uncertainty": "8",
        "minimum_orbit_intersection": ".0332826",
        "jupiter_tisserand_invariant": "4.921",
        "epoch_osculation": "2458781.5",
        "eccentricity": ".334266987079447",
        "semi_major_axis": "1.301644948638024",
        "inclination": "11.49396908309343",
        "ascending_node_longitude": "213.5170493647487",
        "orbital_period": "542.4219215190523",
        "perihelion_distance": ".86654801340961",
        "perihelion_argument": "106.7562572547281",
        "aphelion_distance": "1.736741883866437",
        "perihelion_time": "2458725.786249193603",
        "mean_anomaly": "36.97665874958269",
        "mean_motion": ".6636899906106674",
        "equinox": "J2000",
        "orbit_class": {
            "orbit_class_type": "APO",
            "orbit_class_description": "Near-Earth asteroid orbits which cross the Earth’s orbit similar to that of 1862 Apollo",
            "orbit_class_range": "a (semi-major axis) > 1.0 AU; q (perihelion) < 1.017 AU"
        }
    },
    "is_sentry_object": false
}